{"type": "FeatureCollection", "features": [ {"type": "Feature", "properties": {"norad_id": 37295, "name": "COSMOS 2251 DEB", "group": "cosmos-2251-debris", "lat": -73.95814728101483, "lon": 171.2611580177892, "alt_km": 712.4362553976371, "timestamp": "2025-12-25T09:48:52.686667+00:00", "meta": {"OBJECT_NAME": "COSMOS 2251 DEB", "OBJECT_ID": "1993-036BJK", "EPOCH": "2025-12-22T00:17:34.421280", "MEAN_MOTION": 14.65289136, "ECCENTRICITY": 0.00439318, "INCLINATION": 74.0064, "RA_OF_ASC_NODE": 263.7481, "ARG_OF_PERICENTER": 80.1076, "MEAN_ANOMALY": 280.5048, "EPHEMERIS_TYPE": 0, "CLASSIFICATION_TYPE": "U", "NORAD_CAT_ID": 37295, "ELEMENT_SET_NO": 999, "REV_AT_EPOCH": 82440, "BSTAR": 0.0005221723, "MEAN_MOTION_DOT": 2.826e-05, "MEAN_MOTION_DDOT": 0}, "tle": {"line1": "1 37295U 93036BJK 25356.01220395  .00002826  00000+0  52217-3 0  9997", "line2": "2 37295  74.0064 263.7481 0043931  80.1076 280.5048 14.65289136824402"}}, "geometry": {"type": "Point", "coordinates": [171.2611580177892, -73.95814728101483]}}, {"type": "Feature", "properties": {"norad_id": 37305, "name": "COSMOS 2251 DEB", "group": "cosmos-2251-debris", "lat": 13.150575850813482, "lon": 83.13928842041713, "alt_km": 753.5729572624632, "timestamp": "2025-12-25T09:48:52.686676+00:00", "meta": {"OBJECT_NAME": "COSMOS 2251 DEB", "OBJECT_ID": "1993-036BJV", "EPOCH": "2025-12-23T00:11:55.974336", "MEAN_MOTION": 14.36169187, "ECCENTRICITY": 0.00495961, "INCLINATION": 73.8701, "RA_OF_ASC_NODE": 271.4675, "ARG_OF_PERICENTER": 230.2466, "MEAN_ANOMALY": 129.4312, "EPHEMERIS_TYPE": 0, "CLASSIFICATION_TYPE": "U", "NORAD_CAT_ID": 37305, "ELEMENT_SET_NO": 999, "REV_AT_EPOCH": 67014, "BSTAR": 0.00056579218, "MEAN_MOTION_DOT": 1.645e-05, "MEAN_MOTION_DDOT": 0}, "tle": {"line1": "1 37305U 93036BJV 25357.00828674  .00001645  00000+0  56579-3 0  9996", "line2": "2 37305  73.8701 271.4675 0049596 230.2466 129.4312 14.36169187670140"}}, "geometry": {"type": "Point", "coordinates": [83.13928842041713, 13.150575850813482]}}, {"type": "Feature", "properties": {"norad_id": 37312, "name": "COSMOS 2251 DEB", "group": "cosmos-2251-debris", "lat": -52.855768647377005, "lon": 158.3184621880515, "alt_km": 732.5630403084506, "timestamp": "2025-12-25T09:48:52.686686+00:00", "meta": {"OBJECT_NAME": "COSMOS 2251 DEB", "OBJECT_ID": "1993-036BKC", "EPOCH": "2025-12-24T20:47:26.400192", "MEAN_MOTION": 14.46161894, "ECCENTRICITY": 0.0018528, "INCLINATION": 74.0296, "RA_OF_ASC_NODE": 181.5439, "ARG_OF_PERICENTER": 283.6542, "MEAN_ANOMALY": 76.2553, "EPHEMERIS_TYPE": 0, "CLASSIFICATION_TYPE": "U", "NORAD_CAT_ID": 37312, "ELEMENT_SET_NO": 999, "REV_AT_EPOCH": 86339, "BSTAR": 0.00042921, "MEAN_MOTION_DOT": 1.51e-05, "MEAN_MOTION_DDOT": 0}, "tle": {"line1": "1 37312U 93036BKC 25358.86627778  .00001510  00000+0  42921-3 0  9998", "line2": "2 37312  74.0296 181.5439 0018528 283.6542  76.2553 14.46161894863392"}}, "geometry": {"type": "Point", "coordinates": [158.3184621880515, -52.855768647377005]}}, {"type": "Feature", "properties": {"norad_id": 37316, "name": "COSMOS 2251 DEB", "group": "cosmos-2251-debris", "lat": -16.808055007883212, "lon": -179.52884483806264, "alt_km": 602.2256598123831, "timestamp": "2025-12-25T09:48:52.686696+00:00", "meta": {"OBJECT_NAME": "COSMOS 2251 DEB", "OBJECT_ID": "1993-036BKG", "EPOCH": "2025-12-23T10:21:39.448512", "MEAN_MOTION": 14.94918981, "ECCENTRICITY": 0.00294951, "INCLINATION": 74.0191, "RA_OF_ASC_NODE": 359.4944, "ARG_OF_PERICENTER": 63.4834, "MEAN_ANOMALY": 296.9369, "EPHEMERIS_TYPE": 0, "CLASSIFICATION_TYPE": "U", "NORAD_CAT_ID": 37316, "ELEMENT_SET_NO": 999, "REV_AT_EPOCH": 86303, "BSTAR": 0.0022174093, "MEAN_MOTION_DOT": 0.00024458, "MEAN_MOTION_DDOT": 0}, "tle": {"line1": "1 37316U 93036BKG 25357.43170658  .00024458  00000+0  22174-2 0  9997", "line2": "2 37316  74.0191 359.4944 0029495  63.4834 296.9369 14.94918981863037"}}, "geometry": {"type": "Point", "coordinates": [-179.52884483806264, -16.808055007883212]}}, {"type": "Feature", "properties": {"norad_id": 37320, "name": "COSMOS 2251 DEB", "group": "cosmos-2251-debris", "lat": -30.939179314193588, "lon": -176.60544676555196, "alt_km": 617.2588064245028, "timestamp": "2025-12-25T09:48:52.686706+00:00", "meta": {"OBJECT_NAME": "COSMOS 2251 DEB", "OBJECT_ID": "1993-036BKL", "EPOCH": "2025-12-22T20:16:00.405696", "MEAN_MOTION": 14.78886663, "ECCENTRICITY": 0.0046926, "INCLINATION": 74.0442, "RA_OF_ASC_NODE": 198.3073, "ARG_OF_PERICENTER": 283.335, "MEAN_ANOMALY": 76.2596, "EPHEMERIS_TYPE": 0, "CLASSIFICATION_TYPE": "U", "NORAD_CAT_ID": 37320, "ELEMENT_SET_NO": 999, "REV_AT_EPOCH": 66296, "BSTAR": 0.000787018, "MEAN_MOTION_DOT": 5.877e-05, "MEAN_MOTION_DDOT": 0}, "tle": {"line1": "1 37320U 93036BKL 25356.84444914  .00005877  00000+0  78702-3 0  9998", "line2": "2 37320  74.0442 198.3073 0046926 283.3350  76.2596 14.78886663662961"}}, "geometry": {"type": "Point", "coordinates": [-176.60544676555196, -30.939179314193588]}}, {"type": "Feature", "properties": {"norad_id": 37326, "name": "COSMOS 2251 DEB", "group": "cosmos-2251-debris", "lat": 66.04894013110413, "lon": 90.2884390877804, "alt_km": 648.2948604965859, "timestamp": "2025-12-25T09:48:52.686716+00:00", "meta": {"OBJECT_NAME": "COSMOS 2251 DEB", "OBJECT_ID": "1993-036BKS", "EPOCH": "2025-12-18T14:41:59.918784", "MEAN_MOTION": 14.6160351, "ECCENTRICITY": 0.00547059, "INCLINATION": 74.0257, "RA_OF_ASC_NODE": 323.4491, "ARG_OF_PERICENTER": 90.7075, "MEAN_ANOMALY": 270.0361, "EPHEMERIS_TYPE": 0, "CLASSIFICATION_TYPE": "U", "NORAD_CAT_ID": 37326, "ELEMENT_SET_NO": 999, "REV_AT_EPOCH": 85569, "BSTAR": 0.00040097011, "MEAN_MOTION_DOT": 2.005e-05, "MEAN_MOTION_DDOT": 0}, "tle": {"line1": "1 37326U 93036BKS 25352.61249906  .00002005  00000+0  40097-3 0  9995", "line2": "2 37326  74.0257 323.4491 0054705  90.7075 270.0361 14.61603510855692"}}, "geometry": {"type": "Point", "coordinates": [90.2884390877804, 66.04894013110413]}}, {"type": "Feature", "properties": {"norad_id": 37330, "name": "COSMOS 2251 DEB", "group": "cosmos-2251-debris", "lat": 9.90885346138469, "lon": -86.22777118243063, "alt_km": 706.2440326572805, "timestamp": "2025-12-25T09:48:52.686726+00:00", "meta": {"OBJECT_NAME": "COSMOS 2251 DEB", "OBJECT_ID": "1993-036BKW", "EPOCH": "2025-12-24T00:52:02.666208", "MEAN_MOTION": 14.59569552, "ECCENTRICITY": 0.00567424, "INCLINATION": 74.0177, "RA_OF_ASC_NODE": 273.5222, "ARG_OF_PERICENTER": 118.7622, "MEAN_ANOMALY": 241.926, "EPHEMERIS_TYPE": 0, "CLASSIFICATION_TYPE": "U", "NORAD_CAT_ID": 37330, "ELEMENT_SET_NO": 999, "REV_AT_EPOCH": 86533, "BSTAR": 0.00027721204, "MEAN_MOTION_DOT": 1.317e-05, "MEAN_MOTION_DDOT": 0}, "tle": {"line1": "1 37330U 93036BKW 25358.03614197  .00001317  00000+0  27721-3 0  9994", "line2": "2 37330  74.0177 273.5222 0056742 118.7622 241.9260 14.59569552865338"}}, "geometry": {"type": "Point", "coordinates": [-86.22777118243063, 9.90885346138469]}}, {"type": "Feature", "properties": {"norad_id": 37331, "name": "COSMOS 2251 DEB", "group": "cosmos-2251-debris", "lat": 72.7474118901803, "lon": 157.85536385444485, "alt_km": 737.8770537174678, "timestamp": "2025-12-25T09:48:52.686735+00:00", "meta": {"OBJECT_NAME": "COSMOS 2251 DEB", "OBJECT_ID": "1993-036BKX", "EPOCH": "2025-12-24T11:37:12.375264", "MEAN_MOTION": 14.35050755, "ECCENTRICITY": 0.00553191, "INCLINATION": 74.0736, "RA_OF_ASC_NODE": 46.3907, "ARG_OF_PERICENTER": 56.9806, "MEAN_ANOMALY": 303.6644, "EPHEMERIS_TYPE": 0, "CLASSIFICATION_TYPE": "U", "NORAD_CAT_ID": 37331, "ELEMENT_SET_NO": 999, "REV_AT_EPOCH": 84928, "BSTAR": 0.00040764009, "MEAN_MOTION_DOT": 1.157e-05, "MEAN_MOTION_DDOT": 0}, "tle": {"line1": "1 37331U 93036BKX 25358.48417101  .00001157  00000+0  40764-3 0  9994", "line2": "2 37331  74.0736  46.3907 0055319  56.9806 303.6644 14.35050755849284"}}, "geometry": {"type": "Point", "coordinates": [157.85536385444485, 72.7474118901803]}}, {"type": "Feature", "properties": {"norad_id": 37336, "name": "COSMOS 2251 DEB", "group": "cosmos-2251-debris", "lat": -26.180514886866764, "lon": -59.99757529936966, "alt_km": 774.3316904525063, "timestamp": "2025-12-25T09:48:52.686746+00:00", "meta": {"OBJECT_NAME": "COSMOS 2251 DEB", "OBJECT_ID": "1993-036BLC", "EPOCH": "2025-12-17T07:33:13.175712", "MEAN_MOTION": 14.32760586, "ECCENTRICITY": 0.00290162, "INCLINATION": 74.0414, "RA_OF_ASC_NODE": 322.8603, "ARG_OF_PERICENTER": 39.1846, "MEAN_ANOMALY": 321.1399, "EPHEMERIS_TYPE": 0, "CLASSIFICATION_TYPE": "U", "NORAD_CAT_ID": 37336, "ELEMENT_SET_NO": 999, "REV_AT_EPOCH": 65185, "BSTAR": 6.9199726e-05, "MEAN_MOTION_DOT": 1.63e-06, "MEAN_MOTION_DDOT": 0}, "tle": {"line1": "1 37336U 93036BLC 25351.31473583  .00000163  00000+0  69200-4 0  9993", "line2": "2 37336  74.0414 322.8603 0029016  39.1846 321.1399 14.32760586651852"}}, "geometry": {"type": "Point", "coordinates": [-59.99757529936966, -26.180514886866764]}}, {"type": "Feature", "properties": {"norad_id": 37340, "name": "COSMOS 2251 DEB", "group": "cosmos-2251-debris", "lat": 22.305068975979474, "lon": -99.40026713407589, "alt_km": 757.7167484644115, "timestamp": "2025-12-25T09:48:52.686756+00:00", "meta": {"OBJECT_NAME": "COSMOS 2251 DEB", "OBJECT_ID": "1993-036BLG", "EPOCH": "2025-12-19T03:19:36.196032", "MEAN_MOTION": 14.36930541, "ECCENTRICITY": 0.00180628, "INCLINATION": 74.0254, "RA_OF_ASC_NODE": 265.3825, "ARG_OF_PERICENTER": 358.9051, "MEAN_ANOMALY": 1.206, "EPHEMERIS_TYPE": 0, "CLASSIFICATION_TYPE": "U", "NORAD_CAT_ID": 37340, "ELEMENT_SET_NO": 999, "REV_AT_EPOCH": 84159, "BSTAR": 0.00014760605, "MEAN_MOTION_DOT": 4.11e-06, "MEAN_MOTION_DDOT": 0}, "tle": {"line1": "1 37340U 93036BLG 25353.13861338  .00000411  00000+0  14761-3 0  9996", "line2": "2 37340  74.0254 265.3825 0018062 358.9051   1.2060 14.36930541841592"}}, "geometry": {"type": "Point", "coordinates": [-99.40026713407589, 22.305068975979474]}}]}